HAWK-5A                 
1 52757U 22057AB  26158.94825039  .00019303  00000+0  33294-3 0  9993
2 52757  97.6599 317.2031 0005985 106.6702 253.5207 15.51062162224910
HAWK-6B                 
1 55324U 23011A   26158.41196135  .00004950  00000+0  21517-3 0  9994
2 55324  40.4987  49.0839 0003999 308.4007  51.6443 15.22842694186357
HAWK-6C                 
1 55326U 23011C   26158.01783225  .00005158  00000+0  22379-3 0  9992
2 55326  40.4979  48.2214 0004579 296.5763  63.4577 15.22846078186303
HAWK-6A                 
1 55327U 23011D   26157.42764580  .00005594  00000+0  24211-3 0  9991
2 55327  40.4987  53.2869 0004295 292.3056  67.7298 15.22834948186219
HAWK-7A                 
1 56191U 23054P   26158.67595491  .00001909  00000+0  74160-4 0  9994
2 56191  97.2715  46.2556 0004571  79.2385 280.9368 15.27257398175574
HAWK-7B                 
1 56193U 23054R   26159.20002410  .00005103  00000+0  19369-3 0  9999
2 56193  97.2737  45.0263 0003999  86.3301 273.8395 15.27268920175655
HAWK-7C                 
1 56200U 23054Y   26159.19991129  .00004908  00000+0  18638-3 0  9990
2 56200  97.2715  45.7977 0004111  78.6000 281.5702 15.27265730175650
